[{"OBJECT_NAME":"HST","OBJECT_ID":"1990-037B","EPOCH":"2026-04-03T16:03:47.002464","MEAN_MOTION":15.29899616,"ECCENTRICITY":0.0002132,"INCLINATION":28.4724,"RA_OF_ASC_NODE":229.5454,"ARG_OF_PERICENTER":51.9469,"MEAN_ANOMALY":308.1319,"EPHEMERIS_TYPE":0,"CLASSIFICATION_TYPE":"U","NORAD_CAT_ID":20580,"ELEMENT_SET_NO":999,"REV_AT_EPOCH":77714,"BSTAR":0.00040809,"MEAN_MOTION_DOT":0.00012406,"MEAN_MOTION_DDOT":0},{"OBJECT_NAME":"POLAR","OBJECT_ID":"1996-013A","EPOCH":"2026-04-04T02:17:33.442080","MEAN_MOTION":1.29845741,"ECCENTRICITY":0.63955685,"INCLINATION":79.7819,"RA_OF_ASC_NODE":227.9051,"ARG_OF_PERICENTER":211.6054,"MEAN_ANOMALY":85.4938,"EPHEMERIS_TYPE":0,"CLASSIFICATION_TYPE":"U","NORAD_CAT_ID":23802,"ELEMENT_SET_NO":999,"REV_AT_EPOCH":14389,"BSTAR":0,"MEAN_MOTION_DOT":9.7e-7,"MEAN_MOTION_DDOT":0},{"OBJECT_NAME":"SWAS","OBJECT_ID":"1998-071A","EPOCH":"2026-04-04T06:07:00.539040","MEAN_MOTION":15.09098782,"ECCENTRICITY":0.00061066,"INCLINATION":69.8969,"RA_OF_ASC_NODE":58.0992,"ARG_OF_PERICENTER":334.3335,"MEAN_ANOMALY":25.7525,"EPHEMERIS_TYPE":0,"CLASSIFICATION_TYPE":"U","NORAD_CAT_ID":25560,"ELEMENT_SET_NO":999,"REV_AT_EPOCH":48611,"BSTAR":0.00047825841,"MEAN_MOTION_DOT":7.503e-5,"MEAN_MOTION_DDOT":0},{"OBJECT_NAME":"CXO","OBJECT_ID":"1999-040B","EPOCH":"2026-04-05T07:55:45.219936","MEAN_MOTION":0.3780544,"ECCENTRICITY":0.79530362,"INCLINATION":54.9818,"RA_OF_ASC_NODE":118.8093,"ARG_OF_PERICENTER":310.647,"MEAN_ANOMALY":0.0525,"EPHEMERIS_TYPE":0,"CLASSIFICATION_TYPE":"U","NORAD_CAT_ID":25867,"ELEMENT_SET_NO":999,"REV_AT_EPOCH":1704,"BSTAR":0,"MEAN_MOTION_DOT":7.81e-6,"MEAN_MOTION_DDOT":0},{"OBJECT_NAME":"XMM-NEWTON","OBJECT_ID":"1999-066A","EPOCH":"2026-04-05T13:09:05.647392","MEAN_MOTION":0.50130994,"ECCENTRICITY":0.4698499,"INCLINATION":64.8516,"RA_OF_ASC_NODE":283.9204,"ARG_OF_PERICENTER":66.1986,"MEAN_ANOMALY":0.0494,"EPHEMERIS_TYPE":0,"CLASSIFICATION_TYPE":"U","NORAD_CAT_ID":25989,"ELEMENT_SET_NO":999,"REV_AT_EPOCH":2264,"BSTAR":0,"MEAN_MOTION_DOT":6.9e-7,"MEAN_MOTION_DDOT":0},{"OBJECT_NAME":"TERRA","OBJECT_ID":"1999-068A","EPOCH":"2026-04-04T06:16:07.915872","MEAN_MOTION":14.61044406,"ECCENTRICITY":0.00036715,"INCLINATION":97.9539,"RA_OF_ASC_NODE":146.7122,"ARG_OF_PERICENTER":99.1126,"MEAN_ANOMALY":325.8657,"EPHEMERIS_TYPE":0,"CLASSIFICATION_TYPE":"U","NORAD_CAT_ID":25994,"ELEMENT_SET_NO":999,"REV_AT_EPOCH":39881,"BSTAR":0.00016740889,"MEAN_MOTION_DOT":7.77e-6,"MEAN_MOTION_DDOT":0},{"OBJECT_NAME":"CLUSTER II-FM7 (SAMBA)","OBJECT_ID":"2000-041A","EPOCH":"2026-03-31T00:54:20.014560","MEAN_MOTION":0.44796982,"ECCENTRICITY":0.89530667,"INCLINATION":149.3581,"RA_OF_ASC_NODE":38.1493,"ARG_OF_PERICENTER":254.4502,"MEAN_ANOMALY":0.4223,"EPHEMERIS_TYPE":0,"CLASSIFICATION_TYPE":"U","NORAD_CAT_ID":26410,"ELEMENT_SET_NO":999,"REV_AT_EPOCH":1996,"BSTAR":0,"MEAN_MOTION_DOT":2.444e-5,"MEAN_MOTION_DDOT":0},{"OBJECT_NAME":"CLUSTER II-FM8 (TANGO)","OBJECT_ID":"2000-045B","EPOCH":"2026-04-04T02:40:07.903776","MEAN_MOTION":0.44400104,"ECCENTRICITY":0.89621495,"INCLINATION":149.6837,"RA_OF_ASC_NODE":39.5667,"ARG_OF_PERICENTER":255.7736,"MEAN_ANOMALY":0.6086,"EPHEMERIS_TYPE":0,"CLASSIFICATION_TYPE":"U","NORAD_CAT_ID":26464,"ELEMENT_SET_NO":999,"REV_AT_EPOCH":1997,"BSTAR":0,"MEAN_MOTION_DOT":3.194e-5,"MEAN_MOTION_DDOT":0},{"OBJECT_NAME":"ODIN","OBJECT_ID":"2001-007A","EPOCH":"2026-04-04T01:35:07.992672","MEAN_MOTION":15.6128342,"ECCENTRICITY":0.0004595,"INCLINATION":97.4009,"RA_OF_ASC_NODE":131.1923,"ARG_OF_PERICENTER":88.3838,"MEAN_ANOMALY":271.7946,"EPHEMERIS_TYPE":0,"CLASSIFICATION_TYPE":"U","NORAD_CAT_ID":26702,"ELEMENT_SET_NO":999,"REV_AT_EPOCH":37779,"BSTAR":0.0009658806,"MEAN_MOTION_DOT":0.00082546,"MEAN_MOTION_DDOT":0},{"OBJECT_NAME":"TIMED","OBJECT_ID":"2001-055B","EPOCH":"2026-04-04T04:58:54.399648","MEAN_MOTION":14.95117901,"ECCENTRICITY":0.00026161,"INCLINATION":74.0713,"RA_OF_ASC_NODE":23.9564,"ARG_OF_PERICENTER":242.7441,"MEAN_ANOMALY":117.3477,"EPHEMERIS_TYPE":0,"CLASSIFICATION_TYPE":"U","NORAD_CAT_ID":26998,"ELEMENT_SET_NO":999,"REV_AT_EPOCH":31976,"BSTAR":0.00028851077,"MEAN_MOTION_DOT":3.127e-5,"MEAN_MOTION_DDOT":0},{"OBJECT_NAME":"CORIOLIS","OBJECT_ID":"2003-001A","EPOCH":"2026-04-03T23:55:46.036704","MEAN_MOTION":14.19923337,"ECCENTRICITY":0.0015085,"INCLINATION":98.7157,"RA_OF_ASC_NODE":102.0082,"ARG_OF_PERICENTER":68.5844,"MEAN_ANOMALY":291.694,"EPHEMERIS_TYPE":0,"CLASSIFICATION_TYPE":"U","NORAD_CAT_ID":27640,"ELEMENT_SET_NO":999,"REV_AT_EPOCH":20369,"BSTAR":0.0001222281,"MEAN_MOTION_DOT":2.16e-6,"MEAN_MOTION_DDOT":0},{"OBJECT_NAME":"SORCE","OBJECT_ID":"2003-004A","EPOCH":"2026-04-04T00:16:31.782144","MEAN_MOTION":15.03306301,"ECCENTRICITY":0.0018421,"INCLINATION":39.9919,"RA_OF_ASC_NODE":324.7458,"ARG_OF_PERICENTER":242.1037,"MEAN_ANOMALY":117.7892,"EPHEMERIS_TYPE":0,"CLASSIFICATION_TYPE":"U","NORAD_CAT_ID":27651,"ELEMENT_SET_NO":999,"REV_AT_EPOCH":26073,"BSTAR":0.00049227027,"MEAN_MOTION_DOT":6.676e-5,"MEAN_MOTION_DDOT":0},{"OBJECT_NAME":"MOST","OBJECT_ID":"2003-031D","EPOCH":"2026-04-04T00:18:22.496832","MEAN_MOTION":14.21306755,"ECCENTRICITY":0.00109559,"INCLINATION":98.7077,"RA_OF_ASC_NODE":102.7667,"ARG_OF_PERICENTER":105.1822,"MEAN_ANOMALY":255.0568,"EPHEMERIS_TYPE":0,"CLASSIFICATION_TYPE":"U","NORAD_CAT_ID":27843,"ELEMENT_SET_NO":999,"REV_AT_EPOCH":18017,"BSTAR":8.516055e-5,"MEAN_MOTION_DOT":1.42e-6,"MEAN_MOTION_DDOT":0},{"OBJECT_NAME":"SCISAT 1","OBJECT_ID":"2003-036A","EPOCH":"2026-04-04T01:49:28.773408","MEAN_MOTION":14.81362357,"ECCENTRICITY":0.00064023,"INCLINATION":73.9303,"RA_OF_ASC_NODE":318.5863,"ARG_OF_PERICENTER":31.6154,"MEAN_ANOMALY":328.5405,"EPHEMERIS_TYPE":0,"CLASSIFICATION_TYPE":"U","NORAD_CAT_ID":27858,"ELEMENT_SET_NO":999,"REV_AT_EPOCH":22047,"BSTAR":0.00016069023,"MEAN_MOTION_DOT":1.22e-5,"MEAN_MOTION_DDOT":0},{"OBJECT_NAME":"SWIFT","OBJECT_ID":"2004-047A","EPOCH":"2026-04-04T02:47:16.498752","MEAN_MOTION":15.61795317,"ECCENTRICITY":0.00029437,"INCLINATION":20.5545,"RA_OF_ASC_NODE":33.3576,"ARG_OF_PERICENTER":354.8348,"MEAN_ANOMALY":5.2067,"EPHEMERIS_TYPE":0,"CLASSIFICATION_TYPE":"U","NORAD_CAT_ID":28485,"ELEMENT_SET_NO":999,"REV_AT_EPOCH":17524,"BSTAR":0.00085589155,"MEAN_MOTION_DOT":0.00078953,"MEAN_MOTION_DDOT":0},{"OBJECT_NAME":"HINODE (SOLAR-B)","OBJECT_ID":"2006-041A","EPOCH":"2026-04-04T01:19:26.752800","MEAN_MOTION":14.68518958,"ECCENTRICITY":0.0018014,"INCLINATION":98.0603,"RA_OF_ASC_NODE":111.2899,"ARG_OF_PERICENTER":159.1078,"MEAN_ANOMALY":201.0867,"EPHEMERIS_TYPE":0,"CLASSIFICATION_TYPE":"U","NORAD_CAT_ID":29479,"ELEMENT_SET_NO":999,"REV_AT_EPOCH":4399,"BSTAR":0.00021873328,"MEAN_MOTION_DOT":1.222e-5,"MEAN_MOTION_DDOT":0},{"OBJECT_NAME":"SHIJIAN-6 02A (SJ-6 02A)","OBJECT_ID":"2006-046A","EPOCH":"2026-04-04T06:10:12.342720","MEAN_MOTION":15.16114093,"ECCENTRICITY":0.0004183,"INCLINATION":97.6441,"RA_OF_ASC_NODE":134.786,"ARG_OF_PERICENTER":55.5517,"MEAN_ANOMALY":304.611,"EPHEMERIS_TYPE":0,"CLASSIFICATION_TYPE":"U","NORAD_CAT_ID":29505,"ELEMENT_SET_NO":999,"REV_AT_EPOCH":6106,"BSTAR":0.00086707791,"MEAN_MOTION_DOT":0.00016667,"MEAN_MOTION_DDOT":0}]
